[{"OBJECT_NAME":"JILIN-1 GAOFEN 03D54","OBJECT_ID":"2022-155D","EPOCH":"2026-03-09T23:37:20.443296","MEAN_MOTION":15.68305206,"ECCENTRICITY":0.00027254,"INCLINATION":97.6021,"RA_OF_ASC_NODE":211.7883,"ARG_OF_PERICENTER":319.8773,"MEAN_ANOMALY":40.2286,"EPHEMERIS_TYPE":0,"CLASSIFICATION_TYPE":"U","NORAD_CAT_ID":54254,"ELEMENT_SET_NO":999,"REV_AT_EPOCH":18463,"BSTAR":0.00092591646,"MEAN_MOTION_DOT":0.00104667,"MEAN_MOTION_DDOT":0},{"OBJECT_NAME":"STARLINK-11154 [DTC]","OBJECT_ID":"2024-164K","EPOCH":"2026-03-09T22:22:14.057760","MEAN_MOTION":15.69695265,"ECCENTRICITY":9.502e-5,"INCLINATION":53.1593,"RA_OF_ASC_NODE":310.316,"ARG_OF_PERICENTER":63.263,"MEAN_ANOMALY":296.8485,"EPHEMERIS_TYPE":0,"CLASSIFICATION_TYPE":"U","NORAD_CAT_ID":61059,"ELEMENT_SET_NO":999,"REV_AT_EPOCH":8545,"BSTAR":3.98823e-6,"MEAN_MOTION_DOT":-1.05e-6,"MEAN_MOTION_DDOT":0}]
